CCSDS_OMM_VERS = 2.0
CREATION_DATE  = 
ORIGINATOR     = 

OBJECT_NAME    = TWILIGHT AH
OBJECT_ID      = 2026-004AH
CENTER_NAME    = EARTH
REF_FRAME      = TEME
TIME_SYSTEM    = UTC
MEAN_ELEMENT_THEORY = SGP/SGP4

EPOCH          = 2026-02-05T19:01:47.038656
MEAN_MOTION    = 15.18266464
ECCENTRICITY   = .001085
INCLINATION    = 97.4472
RA_OF_ASC_NODE = 37.7648
ARG_OF_PERICENTER = 77.6476
MEAN_ANOMALY   = 282.5972

EPHEMERIS_TYPE = 0
CLASSIFICATION_TYPE = U
NORAD_CAT_ID   = 67394
ELEMENT_SET_NO = 999
REV_AT_EPOCH   = 382
BSTAR          = .69429E-3
MEAN_MOTION_DOT = .14195E-3
MEAN_MOTION_DDOT = 0

CCSDS_OMM_VERS = 2.0
CREATION_DATE  = 
ORIGINATOR     = 

OBJECT_NAME    = TWILIGHT AJ
OBJECT_ID      = 2026-004AJ
CENTER_NAME    = EARTH
REF_FRAME      = TEME
TIME_SYSTEM    = UTC
MEAN_ELEMENT_THEORY = SGP/SGP4

EPOCH          = 2026-02-05T18:25:05.374848
MEAN_MOTION    = 14.87803672
ECCENTRICITY   = .0004915
INCLINATION    = 97.8014
RA_OF_ASC_NODE = 37.5148
ARG_OF_PERICENTER = 185.2613
MEAN_ANOMALY   = 174.8552

EPHEMERIS_TYPE = 0
CLASSIFICATION_TYPE = U
NORAD_CAT_ID   = 67395
ELEMENT_SET_NO = 999
REV_AT_EPOCH   = 373
BSTAR          = .37824E-3
MEAN_MOTION_DOT = .3401E-4
MEAN_MOTION_DDOT = 0

CCSDS_OMM_VERS = 2.0
CREATION_DATE  = 
ORIGINATOR     = 

OBJECT_NAME    = TWILIGHT AK
OBJECT_ID      = 2026-004AK
CENTER_NAME    = EARTH
REF_FRAME      = TEME
TIME_SYSTEM    = UTC
MEAN_ELEMENT_THEORY = SGP/SGP4

EPOCH          = 2026-02-05T19:11:37.339872
MEAN_MOTION    = 15.17846446
ECCENTRICITY   = .0008851
INCLINATION    = 97.4507
RA_OF_ASC_NODE = 37.7684
ARG_OF_PERICENTER = 77.3778
MEAN_ANOMALY   = 282.8445

EPHEMERIS_TYPE = 0
CLASSIFICATION_TYPE = U
NORAD_CAT_ID   = 67396
ELEMENT_SET_NO = 999
REV_AT_EPOCH   = 382
BSTAR          = .71524E-3
MEAN_MOTION_DOT = .14443E-3
MEAN_MOTION_DDOT = 0

CCSDS_OMM_VERS = 2.0
CREATION_DATE  = 
ORIGINATOR     = 

OBJECT_NAME    = CARBSAR
OBJECT_ID      = 2026-004AL
CENTER_NAME    = EARTH
REF_FRAME      = TEME
TIME_SYSTEM    = UTC
MEAN_ELEMENT_THEORY = SGP/SGP4

EPOCH          = 2026-02-05T19:14:41.548992
MEAN_MOTION    = 15.17845899
ECCENTRICITY   = .0007948
INCLINATION    = 97.4529
RA_OF_ASC_NODE = 37.7734
ARG_OF_PERICENTER = 81.5124
MEAN_ANOMALY   = 278.7011

EPHEMERIS_TYPE = 0
CLASSIFICATION_TYPE = U
NORAD_CAT_ID   = 67397
ELEMENT_SET_NO = 999
REV_AT_EPOCH   = 382
BSTAR          = .86831E-3
MEAN_MOTION_DOT = .17552E-3
MEAN_MOTION_DDOT = 0

CCSDS_OMM_VERS = 2.0
CREATION_DATE  = 
ORIGINATOR     = 

OBJECT_NAME    = TWILIGHT AM
OBJECT_ID      = 2026-004AM
CENTER_NAME    = EARTH
REF_FRAME      = TEME
TIME_SYSTEM    = UTC
MEAN_ELEMENT_THEORY = SGP/SGP4

EPOCH          = 2026-02-05T19:09:55.192608
MEAN_MOTION    = 15.17960361
ECCENTRICITY   = .0008855
INCLINATION    = 97.4565
RA_OF_ASC_NODE = 37.7894
ARG_OF_PERICENTER = 85.9211
MEAN_ANOMALY   = 274.3035

EPHEMERIS_TYPE = 0
CLASSIFICATION_TYPE = U
NORAD_CAT_ID   = 67398
ELEMENT_SET_NO = 999
REV_AT_EPOCH   = 382
BSTAR          = .69934E-3
MEAN_MOTION_DOT = .14166E-3
MEAN_MOTION_DDOT = 0

CCSDS_OMM_VERS = 2.0
CREATION_DATE  = 
ORIGINATOR     = 

OBJECT_NAME    = TWILIGHT AN
OBJECT_ID      = 2026-004AN
CENTER_NAME    = EARTH
REF_FRAME      = TEME
TIME_SYSTEM    = UTC
MEAN_ELEMENT_THEORY = SGP/SGP4

EPOCH          = 2026-02-05T19:06:12.635712
MEAN_MOTION    = 15.18114212
ECCENTRICITY   = .000963
INCLINATION    = 97.4555
RA_OF_ASC_NODE = 37.7890
ARG_OF_PERICENTER = 85.4404
MEAN_ANOMALY   = 274.7930

EPHEMERIS_TYPE = 0
CLASSIFICATION_TYPE = U
NORAD_CAT_ID   = 67399
ELEMENT_SET_NO = 999
REV_AT_EPOCH   = 382
BSTAR          = .76201E-3
MEAN_MOTION_DOT = .15515E-3
MEAN_MOTION_DDOT = 0

CCSDS_OMM_VERS = 2.0
CREATION_DATE  = 
ORIGINATOR     = 

OBJECT_NAME    = CONNECTA IOT-13
OBJECT_ID      = 2026-004AP
CENTER_NAME    = EARTH
REF_FRAME      = TEME
TIME_SYSTEM    = UTC
MEAN_ELEMENT_THEORY = SGP/SGP4

EPOCH          = 2026-02-05T18:59:08.401344
MEAN_MOTION    = 15.18261819
ECCENTRICITY   = .0011203
INCLINATION    = 97.4553
RA_OF_ASC_NODE = 37.7944
ARG_OF_PERICENTER = 85.6204
MEAN_ANOMALY   = 274.6309

EPHEMERIS_TYPE = 0
CLASSIFICATION_TYPE = U
NORAD_CAT_ID   = 67400
ELEMENT_SET_NO = 999
REV_AT_EPOCH   = 382
BSTAR          = .66001E-3
MEAN_MOTION_DOT = .13489E-3
MEAN_MOTION_DDOT = 0

CCSDS_OMM_VERS = 2.0
CREATION_DATE  = 
ORIGINATOR     = 

OBJECT_NAME    = CONNECTA IOT-14
OBJECT_ID      = 2026-004AQ
CENTER_NAME    = EARTH
REF_FRAME      = TEME
TIME_SYSTEM    = UTC
MEAN_ELEMENT_THEORY = SGP/SGP4

EPOCH          = 2026-02-05T12:36:52.227072
MEAN_MOTION    = 15.18507831
ECCENTRICITY   = .0011565
INCLINATION    = 97.4485
RA_OF_ASC_NODE = 37.5176
ARG_OF_PERICENTER = 80.5925
MEAN_ANOMALY   = 279.6617

EPHEMERIS_TYPE = 0
CLASSIFICATION_TYPE = U
NORAD_CAT_ID   = 67401
ELEMENT_SET_NO = 999
REV_AT_EPOCH   = 378
BSTAR          = .94117E-3
MEAN_MOTION_DOT = .19418E-3
MEAN_MOTION_DDOT = 0

CCSDS_OMM_VERS = 2.0
CREATION_DATE  = 
ORIGINATOR     = 

OBJECT_NAME    = CONNECTA IOT-15
OBJECT_ID      = 2026-004AR
CENTER_NAME    = EARTH
REF_FRAME      = TEME
TIME_SYSTEM    = UTC
MEAN_ELEMENT_THEORY = SGP/SGP4

EPOCH          = 2026-02-05T19:34:29.304480
MEAN_MOTION    = 15.16797835
ECCENTRICITY   = .000473
INCLINATION    = 97.4554
RA_OF_ASC_NODE = 37.7640
ARG_OF_PERICENTER = 70.7334
MEAN_ANOMALY   = 289.4410

EPHEMERIS_TYPE = 0
CLASSIFICATION_TYPE = U
NORAD_CAT_ID   = 67402
ELEMENT_SET_NO = 999
REV_AT_EPOCH   = 381
BSTAR          = .58188E-3
MEAN_MOTION_DOT = .11377E-3
MEAN_MOTION_DDOT = 0

CCSDS_OMM_VERS = 2.0
CREATION_DATE  = 
ORIGINATOR     = 

OBJECT_NAME    = SHIJIAN-29B (SJ-29B)
OBJECT_ID      = 2025-315C
CENTER_NAME    = EARTH
REF_FRAME      = TEME
TIME_SYSTEM    = UTC
MEAN_ELEMENT_THEORY = SGP/SGP4

EPOCH          = 2026-02-05T20:35:04.816032
MEAN_MOTION    = 1.00273072
ECCENTRICITY   = .0002233
INCLINATION    = 3.0654
RA_OF_ASC_NODE = 98.5471
ARG_OF_PERICENTER = 310.6413
MEAN_ANOMALY   = 108.6749

EPHEMERIS_TYPE = 0
CLASSIFICATION_TYPE = U
NORAD_CAT_ID   = 67403
ELEMENT_SET_NO = 999
REV_AT_EPOCH   = 37
BSTAR          = 0
MEAN_MOTION_DOT = -.69E-6
MEAN_MOTION_DDOT = 0

CCSDS_OMM_VERS = 2.0
CREATION_DATE  = 
ORIGINATOR     = 

OBJECT_NAME    = STARLINK-36484
OBJECT_ID      = 2026-005A
CENTER_NAME    = EARTH
REF_FRAME      = TEME
TIME_SYSTEM    = UTC
MEAN_ELEMENT_THEORY = SGP/SGP4

EPOCH          = 2026-02-05T18:00:02.000160
MEAN_MOTION    = 15.40657390
ECCENTRICITY   = .00017447
INCLINATION    = 43.0005
RA_OF_ASC_NODE = 61.2942
ARG_OF_PERICENTER = 269.1156
MEAN_ANOMALY   = 245.1599

EPHEMERIS_TYPE = 0
CLASSIFICATION_TYPE = U
NORAD_CAT_ID   = 67404
ELEMENT_SET_NO = 999
REV_AT_EPOCH   = 500
BSTAR          = .28134959E-3
MEAN_MOTION_DOT = .1145E-3
MEAN_MOTION_DDOT = 0

CCSDS_OMM_VERS = 2.0
CREATION_DATE  = 
ORIGINATOR     = 

OBJECT_NAME    = STARLINK-36452
OBJECT_ID      = 2026-005B
CENTER_NAME    = EARTH
REF_FRAME      = TEME
TIME_SYSTEM    = UTC
MEAN_ELEMENT_THEORY = SGP/SGP4

EPOCH          = 2026-02-05T12:19:25.606848
MEAN_MOTION    = 15.50634353
ECCENTRICITY   = .0001331
INCLINATION    = 43.0000
RA_OF_ASC_NODE = 62.4649
ARG_OF_PERICENTER = 266.5061
MEAN_ANOMALY   = 93.5647

EPHEMERIS_TYPE = 0
CLASSIFICATION_TYPE = U
NORAD_CAT_ID   = 67405
ELEMENT_SET_NO = 999
REV_AT_EPOCH   = 374
BSTAR          = .10967E-2
MEAN_MOTION_DOT = .64657E-3
MEAN_MOTION_DDOT = 0

