TWILIGHT AH             
1 67394U 26004AH  26036.79290554  .00014195  00000+0  69429-3 0  9991
2 67394  97.4472  37.7648 0010850  77.6476 282.5972 15.18266464  3821
TWILIGHT AJ             
1 67395U 26004AJ  26036.76742332  .00003401  00000+0  37824-3 0  9997
2 67395  97.8014  37.5148 0004915 185.2613 174.8552 14.87803672  3735
TWILIGHT AK             
1 67396U 26004AK  26036.79973773  .00014443  00000+0  71524-3 0  9999
2 67396  97.4507  37.7684 0008851  77.3778 282.8445 15.17846446  3823
CARBSAR                 
1 67397U 26004AL  26036.80186978  .00017552  00000+0  86831-3 0  9996
2 67397  97.4529  37.7734 0007948  81.5124 278.7011 15.17845899  3826
TWILIGHT AM             
1 67398U 26004AM  26036.79855547  .00014166  00000+0  69934-3 0  9993
2 67398  97.4565  37.7894 0008855  85.9211 274.3035 15.17960361  3827
TWILIGHT AN             
1 67399U 26004AN  26036.79597958  .00015515  00000+0  76201-3 0  9997
2 67399  97.4555  37.7890 0009630  85.4404 274.7930 15.18114212  3829
CONNECTA IOT-13         
1 67400U 26004AP  26036.79106946  .00013489  00000+0  66001-3 0  9998
2 67400  97.4553  37.7944 0011203  85.6204 274.6309 15.18261819  3824
CONNECTA IOT-14         
1 67401U 26004AQ  26036.52560448  .00019418  00000+0  94117-3 0  9998
2 67401  97.4485  37.5176 0011565  80.5925 279.6617 15.18507831  3788
CONNECTA IOT-15         
1 67402U 26004AR  26036.81561695  .00011377  00000+0  58188-3 0  9990
2 67402  97.4554  37.7640 0004730  70.7334 289.4410 15.16797835  3812
SHIJIAN-29B (SJ-29B)    
1 67403U 25315C   26036.85769463 -.00000069  00000+0  00000+0 0  9995
2 67403   3.0654  98.5471 0002233 310.6413 108.6749  1.00273072   379
STARLINK-36484          
1 67404U 26005A   26036.75002315  .00011450  00000+0  28135-3 0  9996
2 67404  43.0005  61.2942 0001744 269.1156 245.1599 15.40657390  5005
STARLINK-36452          
1 67405U 26005B   26036.51349082  .00064657  00000+0  10967-2 0  9996
2 67405  43.0000  62.4649 0001331 266.5061  93.5647 15.50634353  3749
